ONEWEB-0634             
1 56075U 23043AF  24227.94298835  .00001919  00000+0  50642-2 0  9998
2 56075  87.9042  32.7860 0001780 103.8050 256.3278 13.15537825 68146
ONEWEB-0635             
1 56076U 23043AG  24227.93822156 -.00000105  00000+0 -31277-3 0  9999
2 56076  87.9040  32.8403 0001837  79.3292 280.8045 13.15546868 68171
ONEWEB-0636             
1 56077U 23043AH  24227.93030277 -.00000002  00000+0 -38599-4 0  9996
2 56077  87.9040  32.8117 0001809  80.0338 280.0996 13.15547762 68152
ONEWEB-0637             
1 56078U 23043AJ  24227.92396053  .00000064  00000+0  13575-3 0  9995
2 56078  87.9043  32.7903 0001902  80.2149 279.9196 13.15547148 68173
ONEWEB-0647             
1 56079U 23043AK  24227.91921065  .00000132  00000+0  31762-3 0  9996
2 56079  87.9041  32.8083 0001575  84.4132 275.7178 13.15549665 68165
ONEWEB-0651             
1 56080U 23043AL  24227.91445470  .00000196  00000+0  48718-3 0  9998
2 56080  87.9042  32.7878 0001988  82.4716 277.6640 13.15548147 69365
ONEWEB-0718             
1 56081U 23043AM  24227.90969909  .00000161  00000+0  39297-3 0  9990
2 56081  87.9041  32.7746 0002077 107.7014 252.4343 13.15546659 68176
